ID,name,NOM_COURT,ARTICLE,ISO_ETAT,NOM_LONG_ETAT,ISO_3166_NOM,IND_TEL_UIT,ISO_CODE_NUM,ISO_alpha3,ISO_alpha2,SOUVERAIN,NOM_ONU,CODE_COG,,
AF_003,Afrique du Sud,Afrique du Sud,l',ZA,R�publique d'Afrique du Sud,Afrique du Sud (l'),27,710,ZAF,ZA,O,Afrique du Sud,99303,,
AF_007,Alg�rie,Alg�rie,l',DZ,R�publique alg�rienne d�mocratique et populaire,Alg�rie (l'),213,12,DZA,DZ,O,Alg�rie,99352,,
AF_010,Angola,Angola,l',AO,R�publique d'Angola,Angola (l'),244,24,AGO,AO,O,Angola,99395,,
AF_020,Ascension (�le de l'),�le de l'Ascension,l',GB,Royaume-Uni de Grande-Bretagne et d'Irlande du Nord,Sainte-H�l�ne, Ascension et Tristan da Cunha,247,654,SHN,SH,N,Sainte-H�l�ne,99306,
AF_034,B�nin,B�nin,le,BJ,R�publique du B�nin,B�nin (le),229,204,BEN,BJ,O,B�nin,99327,,
AF_042,Botswana,Botswana,le,BW,R�publique du Botswana,Botswana (le),267,72,BWA,BW,O,Botswana,99347,,
AF_048,Burkina,Burkina,le,BF,Burkina Faso,Burkina Faso (le),226,854,BFA,BF,O,Burkina Faso,99331,,
AF_049,Burundi,Burundi,le,BI,R�publique du Burundi,Burundi (le),257,108,BDI,BI,O,Burundi,99321,,
AF_052,Cameroun,Cameroun,le,CM,R�publique du Cameroun,Cameroun (le),237,120,CMR,CM,O,Cameroun,99322,,
AF_054,Cap-Vert,Cap-Vert,le,CV,R�publique du Cap-Vert,Cabo Verde,238,132,CPV,CV,O,Cabo Verde,99396,,
AF_055,Centrafrique,Centrafrique,la,CF,R�publique centrafricaine,R�publique centrafricaine (la),236,140,CAF,CF,O,R�publique centrafricaine,99323,,
AF_063,Comores,Comores,les,KM,Union des Comores,Comores (les),269,174,COM,KM,O,Comores,99397,,
AF_064,Congo,Congo,le,CG,R�publique du Congo,Congo (le),242,178,COG,CG,O,Congo,99324,,
AF_065,Congo (R�publique d�mocratique du),R�publique d�mocratique du Congo,la,CD,R�publique d�mocratique du Congo,Congo (la R�publique d�mocratique du),243,180,COD,CD,O,R�publique d�mocratique du Congo,99312,,
AF_071,C�te d'Ivoire,C�te d'Ivoire,la,CI,R�publique de C�te d'Ivoire,C�te d'Ivoire (la),225,384,CIV,CI,O,C�te d�Ivoire,99326,,
AF_076,Djibouti,Djibouti,le,DJ,R�publique de Djibouti,Djibouti,253,262,DJI,DJ,O,Djibouti,99399,,
AF_079,�gypte,�gypte,l',EG,R�publique arabe d'�gypte,�gypte (l'),20,818,EGY,EG,O,�gypte,99301,,
AF_082,�rythr�e,�rythr�e,l',ER,�tat d'�rythr�e,�rythr�e (l'),291,232,ERI,ER,O,�rythr�e,99317,,
AF_086,�thiopie,�thiopie,l',ET,R�publique d�mocratique f�d�rale d'�thiopie,�thiopie (l'),251,231,ETH,ET,O,�thiopie,99315,,
AF_092,Gabon,Gabon,le,GA,R�publique gabonaise,Gabon (le),241,266,GAB,GA,O,Gabon,99328,,
AF_093,Gambie,Gambie,la,GM,R�publique de Gambie,Gambie (la),220,270,GMB,GM,O,Gambie,99304,,
AF_097,Ghana,Ghana,le,GH,R�publique du Ghana,Ghana (le),233,288,GHA,GH,O,Ghana,99329,,
AF_107,Guin�e,Guin�e,la,GN,R�publique de Guin�e,Guin�e (la),224,324,GIN,GN,O,Guin�e,99330,,
AF_108,Guin�e �quatoriale,Guin�e �quatoriale,la,GQ,R�publique de Guin�e �quatoriale,Guin�e �quatoriale (la),240,226,GNQ,GQ,O,Guin�e �quatoriale,99314,,
AF_109,Guin�e-Bissao,Guin�e-Bissao,la,GW,R�publique de Guin�e-Bissao,Guin�e-Bissau (la),245,624,GNB,GW,O,Guin�e-Bissau,99392,,
AF_119,Indien (Territoire britannique de l'oc�an),Territoire britannique de l'oc�an Indien,le,GB,Royaume-Uni de Grande-Bretagne et d'Irlande du Nord,Indien (le Territoire britannique de l'oc�an),246,86,IOT,IO,N,Territoire britannique de l'oc�an Indien,99308,,
AF_136,K�nya,K�nya,le,KE,R�publique du K�nya,Kenya (le),254,404,KEN,KE,O,Kenya,99332,,
AF_143,L�sotho,L�sotho,le,LS,Royaume du L�sotho,Lesotho (le),266,426,LSO,LS,O,Lesotho,99348,,
AF_146,Lib�ria,Lib�ria,le,LR,R�publique du Lib�ria,Lib�ria (le),231,430,LBR,LR,O,Lib�ria,99302,,
AF_147,Libye,Libye,la,LY,�tat de Libye,Libye (la),218,434,LBY,LY,O,Libye,99316,,
AF_153,Madagascar,Madagascar,,MG,R�publique de Madagascar,Madagascar,261,450,MDG,MG,O,Madagascar,99333,,
AF_156,Malawi,Malawi,le,MW,R�publique du Malawi,Malawi (le),265,454,MWI,MW,O,Malawi,99334,,
AF_158,Mali,Mali,le,ML,R�publique du Mali,Mali (le),223,466,MLI,ML,O,Mali,99335,,
AF_163,Maroc,Maroc,le,MA,Royaume du Maroc,Maroc (le),212,504,MAR,MA,O,Maroc,99350,,
AF_166,Maurice,Maurice,,MU,R�publique de Maurice,Maurice,230,480,MUS,MU,O,Maurice,99390,,
AF_167,Mauritanie,Mauritanie,la,MR,R�publique islamique de Mauritanie,Mauritanie (la),222,478,MRT,MR,O,Mauritanie,99336,,
AF_168,Mayotte,Mayotte,,FR,R�publique fran�aise,Mayotte,262,175,MYT,YT,N,Mayotte,,,
AF_177,Mozambique,Mozambique,le,MZ,R�publique du Mozambique,Mozambique (le),258,508,MOZ,MZ,O,Mozambique,99393,,
AF_178,Namibie,Namibie,la,NA,R�publique de Namibie,Namibie (la),264,516,NAM,NA,O,Namibie,99311,,
AF_183,Niger,Niger,le,NE,R�publique du Niger,Niger (le),227,562,NER,NE,O,Niger,99337,,
AF_184,Nig�ria,Nig�ria,le,NG,R�publique f�d�rale du Nig�ria,Nig�ria (le),234,566,NGA,NG,O,Nig�ria,99338,,
AF_212,R�union (La),La R�union,,FR,R�publique fran�aise,R�union (La),262,638,REU,RE,N,R�union,,,
AF_217,Rwanda,Rwanda,le,RW,R�publique du Rwanda,Rwanda (le),250,646,RWA,RW,O,Rwanda,99340,,
AF_219,Sahara occidental,Sahara occidental,le,,,Sahara occidental (le),,732,ESH,EH,N,Sahara occidental,99389,,
AF_234,Sao Tom�-et-Principe,Sao Tom�-et-Principe,,ST,R�publique d�mocratique de Sao Tom�-et-Principe,Sao Tom�-et-Principe,239,678,STP,ST,O,Sao Tom�-et-Principe,99394,,
AF_235,S�n�gal,S�n�gal,le,SN,R�publique du S�n�gal,S�n�gal (le),221,686,SEN,SN,O,S�n�gal,99341,,
AF_237,Seychelles,Seychelles,les,SC,R�publique des Seychelles,Seychelles (les),248,690,SYC,SC,O,Seychelles,99398,,
AF_239,Sierra Leone,Sierra Leone,la,SL,R�publique de Sierra Leone,Sierra Leone (la),232,694,SLE,SL,O,Sierra Leone,99342,,
AF_243,Somalie,Somalie,la,SO,R�publique f�d�rale de Somalie,Somalie (la),252,706,SOM,SO,O,Somalie,99318,,
AF_244,Soudan,Soudan,le,SD,R�publique du Soudan,Soudan (le),249,729,SDN,SD,O,Soudan,99343,,
AF_245,Soudan du Sud,Soudan du Sud,le,SS,R�publique du Soudan du Sud,Soudan du Sud (le),211,728,SSD,SS,O,Soudan du Sud,99349,,
AF_251,Eswatini,Eswatini,l',SZ,Royaume d'Eswatini,Eswatini (l'),268,748,SWZ,SZ,O,Eswatini,99391,,
AF_255,Tanzanie,Tanzanie,la,TZ,R�publique unie de Tanzanie,Tanzanie (la R�publique-Unie de),255,834,TZA,TZ,O,R�publique-Unie de Tanzanie,99309,,
AF_256,Tchad,Tchad,le,TD,R�publique du Tchad,Tchad (le),235,148,TCD,TD,O,Tchad,99344,,
AF_259,Togo,Togo,le,TG,R�publique togolaise,Togo (le),228,768,TGO,TG,O,Togo,99345,,
AF_263,Tristan da Cunha,Tristan da Cunha,,GB,Royaume-Uni de Grande-Bretagne et d'Irlande du Nord,Sainte-H�l�ne, Ascension et Tristan da Cunha,290,654,SHN,SH,N,Sainte-H�l�ne,99306,
AF_265,Tunisie,Tunisie,la,TN,R�publique tunisienne,Tunisie (la),216,788,TUN,TN,O,Tunisie,99351,,
AF_281,Zambie,Zambie,la,ZM,R�publique de Zambie,Zambie (la),260,894,ZMB,ZM,O,Zambie,99346,,
AF_282,Zimbabw�,Zimbabw�,le,ZW,R�publique du Zimbabw�,Zimbabwe (le),263,716,ZWE,ZW,O,Zimbabwe,99310,,
AF_348,Sainte-H�l�ne,Sainte-H�l�ne,,GB,Royaume-Uni de Grande-Bretagne et d'Irlande du Nord,Sainte-H�l�ne, Ascension et Tristan da Cunha,290,654,SHN,SH,N,Sainte-H�l�ne,99306,
AF_422,Provinces espagnoles d'Afrique,Provinces espagnoles d'Afrique,les,ES,Royaume d'Espagne,,,,,,N,,99313,,
AF_423,Pr�sides,Pr�sides,les,ES,Royaume d'Espagne,,,,,,N,,99313,,
AM_011,Anguilla,Anguilla,,GB,Royaume-Uni de Grande-Bretagne et d'Irlande du Nord,Anguilla,1,660,AIA,AI,N,Anguilla,99425,,
AM_015,Antigua-et-Barbuda,Antigua-et-Barbuda,,AG,Antigua-et-Barbuda,Antigua-et-Barbuda,1,28,ATG,AG,O,Antigua-et-Barbuda,99441,,
AM_017,Argentine,Argentine,l',AR,R�publique argentine,Argentine (l'),54,32,ARG,AR,O,Argentine,99415,,
AM_019,Aruba,Aruba,,NL,Royaume des Pays-Bas,Aruba,297,533,ABW,AW,N,Aruba,99135,,
AM_026,Bahamas,Bahamas,les,BS,Commonwealth des Bahamas,Bahamas (les),1,44,BHS,BS,O,Bahamas,99436,,
AM_030,Barbade,Barbade,la,BB,Barbade,Barbade (la),1,52,BRB,BB,O,Barbade,99434,,
AM_033,B�lize,B�lize,le,BZ,B�lize,Belize (le),501,84,BLZ,BZ,O,Belize,99429,,
AM_035,Bermudes,Bermudes,les,GB,Royaume-Uni de Grande-Bretagne et d'Irlande du Nord,Bermudes (les),1,60,BMU,BM,N,Bermudes,99425,,
AM_039,Bolivie,Bolivie,la,BO,�tat plurinational de Bolivie,Bolivie (�tat plurinational de),591,68,BOL,BO,O,Bolivie (�tat plurinational de),99418,,
AM_040,Bonaire,Bonaire,,NL,Pays-Bas carib�ens,Bonaire, Saint-Eustache et Saba,599,535,BES,BQ,N,Bonaire, Saint-Eustache et Saba,99443
AM_045,Br�sil,Br�sil,le,BR,R�publique f�d�rative du Br�sil,Br�sil (le),55,76,BRA,BR,O,Br�sil,99416,,
AM_050,Ca�mans (�les),�les Ca�mans,les,GB,Royaume-Uni de Grande-Bretagne et d'Irlande du Nord,Ca�mans (les �les),1,136,CYM,KY,N,�les Ca�manes,99425,,
AM_053,Canada,Canada,le,CA,Canada,Canada (le),1,124,CAN,CA,O,Canada,99401,,
AM_056,Chili,Chili,le,CL,R�publique du Chili,Chili (le),56,152,CHL,CL,O,Chili,99417,,
AM_062,Colombie,Colombie,la,CO,R�publique de Colombie,Colombie (la),57,170,COL,CO,O,Colombie,99419,,
AM_070,Costa Rica,Costa Rica,le,CR,R�publique du Costa Rica,Costa Rica (le),506,188,CRI,CR,O,Costa Rica,99406,,
AM_073,Cuba,Cuba,,CU,R�publique de Cuba,Cuba,53,192,CUB,CU,O,Cuba,99407,,
AM_074,Cura�ao,Cura�ao,,NL,Royaume des Pays-Bas,Cura�ao,599,531,CUW,CW,N,Cura�ao,99444,,
AM_077,Dominicaine (R�publique),R�publique dominicaine,la,DO,R�publique dominicaine,dominicaine (la�R�publique),1,214,DOM,DO,O,R�publique dominicaine,99408,,
AM_078,Dominique,Dominique,la,DM,Commonwealth de la Dominique,Dominique (la),1,212,DMA,DM,O,Dominique,99438,,
AM_081,�quateur,�quateur,l',EC,R�publique d'�quateur,�quateur (l'),593,218,ECU,EC,O,�quateur,99420,,
AM_085,�tats-Unis,�tats-Unis,les,US,�tats-Unis d'Am�rique,�tats-Unis d'Am�rique (les),1,840,USA,US,O,�tats-Unis d�Am�rique,99404,,
AM_101,Grenade,Grenade,la,GD,Grenade,Grenade (la),1,308,GRD,GD,O,Grenade,99435,,
AM_103,Guadeloupe,Guadeloupe,la,FR,R�publique fran�aise,Guadeloupe (la),590,312,GLP,GP,N,Guadeloupe,,,
AM_105,Guat�mala,Guat�mala,le,GT,R�publique du Guat�mala,Guatemala (le),502,320,GTM,GT,O,Guatemala,99409,,
AM_110,Guyana,Guyana,le,GY,R�publique coop�rative du Guyana,Guyana (le),592,328,GUY,GY,O,Guyana,99428,,
AM_111,Guyane fran�aise,Guyane fran�aise,la,FR,R�publique fran�aise,Guyane fran�aise (la ),594,254,GUF,GF,N,Guyane fran�aise,,,
AM_112,Ha�ti,Ha�ti,,HT,R�publique d'Ha�ti,Ha�ti,509,332,HTI,HT,O,Ha�ti,99410,,
AM_114,Honduras,Honduras,le,HN,R�publique du Honduras,Honduras (le),504,340,HND,HN,O,Honduras,99411,,
AM_127,Jama�que,Jama�que,la,JM,Jama�que,Jama�que (la,1,388,JAM,JM,O,Jama�que,99426,,
AM_159,Malouines (�les),�les Malouines,les,GB,Royaume-Uni de Grande-Bretagne et d'Irlande du Nord,Falkland (les �les)/Malouines (les �les),500,238,FLK,FK,N,�les Falkland (Malvinas),99427,,
AM_165,Martinique,Martinique,la,FR,R�publique fran�aise,Martinique (la),596,474,MTQ,MQ,N,Martinique,,,
AM_169,Mexique,Mexique,le,MX,�tats-Unis du Mexique,Mexique (le),52,484,MEX,MX,O,Mexique,99405,,
AM_176,Montserrat,Montserrat,,GB,Royaume-Uni de Grande-Bretagne et d'Irlande du Nord,Montserrat,1,500,MSR,MS,N,Montserrat,99425,,
AM_182,Nicaragua,Nicaragua,le,NI,R�publique du Nicaragua,Nicaragua (le),505,558,NIC,NI,O,Nicaragua,99412,,
AM_197,Panama,Panama,le,PA,R�publique du Panama,Panama (le),507,591,PAN,PA,O,Panama,99413,,
AM_199,Paraguay,Paraguay,le,PY,R�publique du Paraguay,Paraguay (le),595,600,PRY,PY,O,Paraguay,99421,,
AM_201,P�rou,P�rou,le,PE,R�publique du P�rou,P�rou (le),51,604,PER,PE,O,P�rou,99422,,
AM_207,Porto Rico,Porto Rico,,US,�tats-Unis d'Am�rique,Porto Rico,1,630,PRI,PR,N,Porto Rico,99432,,
AM_218,Saba,Saba,,NL,Pays-Bas carib�ens,Bonaire, Saint-Eustache et Saba,599,535,BES,BQ,N,Bonaire, Saint-Eustache et Saba,99443
AM_220,Saint-Barth�lemy,Saint-Barth�lemy,,FR,R�publique fran�aise,Saint-Barth�lemy,,652,BLM,BL,N,Saint-Barth�lemy,,,
AM_221,Saint-Christophe-et-Ni�v�s,Saint-Christophe-et-Ni�v�s,,KN,F�d�ration de Saint-Christophe-et-Ni�v�s,Saint-Kitts-et-Nevis,1,659,KNA,KN,O,Saint-Kitts-et-Nevis,99442,,
AM_223,Sainte-Lucie,Sainte-Lucie,,LC,Sainte-Lucie,Sainte-Lucie,1,662,LCA,LC,O,Sainte-Lucie,99439,,
AM_224,Saint-Eustache,Saint-Eustache,,NL,Pays-Bas carib�ens,Bonaire, Saint-Eustache et Saba,599,535,BES,BQ,N,Bonaire, Saint-Eustache et Saba,99443
AM_226,Saint-Martin (partie fran�aise),Saint-Martin (partie fran�aise),,FR,R�publique fran�aise,Saint-Martin (partie fran�aise),,663,MAF,MF,N,Saint-Martin (partie fran�aise),,,
AM_227,Saint-Martin (partie n�erlandaise),Saint-Martin (partie n�erlandaise),,NL,Royaume des Pays-Bas,Saint-Martin (partie n�erlandaise),1,534,SXM,SX,N,Saint-Martin (partie n�erlandaise),99445,,
AM_228,Saint-Pierre-et-Miquelon,Saint-Pierre-et-Miquelon,,FR,R�publique fran�aise,Saint-Pierre-et-Miquelon,508,666,SPM,PM,N,Saint-Pierre-et-Miquelon,,,
AM_229,Saint-Vincent-et-les-Grenadines,Saint-Vincent-et-les-Grenadines,,VC,Saint-Vincent-et-les-Grenadines,Saint-Vincent-et-les Grenadines,1,670,VCT,VC,O,Saint-Vincent-et-les Grenadines,99440,,
AM_231,Salvador,Salvador,le,SV,R�publique du Salvador,El Salvador,503,222,SLV,SV,O,El Salvador,99414,,
AM_249,Suriname,Suriname,le,SR,R�publique du Suriname,Suriname (le),597,740,SUR,SR,O,Suriname,99437,,
AM_262,Trinit�-et-Tobago,Trinit�-et-Tobago,la,TT,R�publique de Trinit�-et-Tobago,Trinit�-et-Tobago (la),1,780,TTO,TT,O,Trinit�-et-Tobago,99433,,
AM_267,Turks-et-Ca�cos (�les),�les Turks-et-Ca�cos,les,GB,Royaume-Uni de Grande-Bretagne et d'Irlande du Nord,Turks-et-Ca�cos (les �les),1,796,TCA,TC,N,�les Turques-et-Ca�ques,99425,,
AM_271,Uruguay,Uruguay,l',UY,R�publique orientale de l'Uruguay,Uruguay (l'),598,858,URY,UY,O,Uruguay,99423,,
AM_274,V�n�zu�la,V�n�zu�la,le,VE,R�publique bolivarienne du V�n�zu�la,Venezuela (R�publique bolivarienne du),58,862,VEN,VE,O,Venezuela (R�publique bolivarienne du),99424,,
AM_275,Vierges britanniques (�les),�les Vierges britanniques,les,GB,Royaume-Uni de Grande-Bretagne et d'Irlande du Nord,Vierges britanniques (les �les),1,92,VGB,VG,N,�les Vierges britanniques,99425,,
AM_276,Vierges des �tats-Unis (�les),�les Vierges des �tats-Unis,les,US,�tats-Unis d'Am�rique,Vierges des �tats-Unis (les �les),1,850,VIR,VI,N,�les Vierges am�ricaines,99432,,
AM_425,Territoires des �tats-Unis en Am�rique,Territoires des �tats-Unis en Am�rique,les,US,�tats-Unis d'Am�rique,,,,,,N,,99432,,
AM_427,Territoires du Royaume-Uni aux Antilles,Territoires du Royaume-Uni aux Antilles,les,GB,Royaume-Uni de Grande-Bretagne et d'Irlande du Nord,,,,,,N,,99425,,
AM_428,Territoires du Royaume-Uni dans l'Atlantique Sud,Territoires du Royaume-Uni dans l'Atlantique Sud,les,GB,Royaume-Uni de Grande-Bretagne et d'Irlande du Nord,,,,,,N,,99427,,
AS_002,Afghanistan,Afghanistan,l',AF,R�publique islamique d'Afghanistan,Afghanistan (l'),93,4,AFG,AF,O,Afghanistan,99212,,
AS_016,Arabie saoudite,Arabie saoudite,l',SA,Royaume d'Arabie saoudite,Arabie saoudite (l'),966,682,SAU,SA,O,Arabie saoudite,99201,,
AS_027,Bahre�n,Bahre�n,,BH,Royaume de Bahre�n,Bahre�n,973,48,BHR,BH,O,Bahre�n,99249,,
AS_029,Bangladesh,Bangladesh,le,BD,R�publique populaire du Bangladesh,Bangladesh (le),880,50,BGD,BD,O,Bangladesh,99246,,
AS_036,Bhoutan,Bhoutan,le,BT,Royaume du Bhoutan,Bhoutan (le),975,64,BTN,BT,O,Bhoutan,99214,,
AS_038,Birmanie,Birmanie,la,MM,R�publique de l'Union de Birmanie,Myanmar (le),95,104,MMR,MM,O,Myanmar,99224,,
AS_046,Brunei,Brunei,le,BN,Brunei Darussalam,Brun�i Darussalam (le),673,96,BRN,BN,O,Brun�i Darussalam,99225,,
AS_051,Cambodge,Cambodge,le,KH,Royaume du Cambodge,Cambodge (le),855,116,KHM,KH,O,Cambodge,99234,,
AS_057,Chine,Chine,la,CN,R�publique populaire de Chine,Chine (la),86,156,CHN,CN,O,Chine,99216,,
AS_068,Cor�e du Nord,Cor�e du Nord,la,KP,R�publique populaire d�mocratique de Cor�e,Cor�e (la R�publique populaire d�mocratique de),850,408,PRK,KP,O,R�publique populaire d�mocratique de Cor�e,99238,,
AS_069,Cor�e du Sud,Cor�e du Sud,la,KR,R�publique de Cor�e,Cor�e (la R�publique de),82,410,KOR,KR,O,R�publique de Cor�e,99239,,
AS_080,�mirats arabes unis,�mirats arabes unis,les,AE,�mirats arabes unis,�mirats arabes unis (les),971,784,ARE,AE,O,�mirats arabes unis,99247,,
AS_115,Hong Kong,Hong Kong,,CN,R�publique populaire de Chine,Hong Kong,852,344,HKG,HK,N,Chine, r�gion administrative sp�ciale de Hong Kong,99230,
AS_118,Inde,Inde,l',IN,R�publique de l'Inde,Inde (l'),91,356,IND,IN,O,Inde,99223,,
AS_120,Indon�sie,Indon�sie,l',ID,R�publique d'Indon�sie,Indon�sie (l'),62,360,IDN,ID,O,Indon�sie,99231,,
AS_121,Irak,Irak,l',IQ,R�publique d'Irak,Iraq (l'),964,368,IRQ,IQ,O,Iraq,99203,,
AS_122,Iran,Iran,l',IR,R�publique islamique d'Iran,Iran (R�publique Islamique d'),98,364,IRN,IR,O,Iran (R�publique islamique d�),99204,,
AS_125,Isra�l,Isra�l,,IL,�tat d'Isra�l,Isra�l,972,376,ISR,IL,O,Isra�l,99207,,
AS_129,Japon,Japon,le,JP,Japon,Japon (le),81,392,JPN,JP,O,Japon,99217,,
AS_133,Jordanie,Jordanie,la,JO,Royaume hach�mite de Jordanie,Jordanie (la),962,400,JOR,JO,O,Jordanie,99222,,
AS_135,Kazakhstan,Kazakhstan,le,KZ,R�publique du Kazakhstan,Kazakhstan (le),7,398,KAZ,KZ,O,Kazakhstan,99256,,
AS_138,Kirghizstan,Kirghizstan,le,KG,R�publique kirghize,Kirghizistan (le),996,417,KGZ,KG,O,Kirghizistan,99257,,
AS_141,Kowe�t,Kowe�t,le,KW,�tat du Kowe�t,Kowe�t (le),965,414,KWT,KW,O,Kowe�t,99240,,
AS_142,Laos,Laos,le,LA,R�publique d�mocratique populaire lao,Lao (la R�publique d�mocratique populaire),856,418,LAO,LA,O,R�publique d�mocratique populaire lao,99241,,
AS_145,Liban,Liban,le,LB,R�publique libanaise,Liban (le),961,422,LBN,LB,O,Liban,99205,,
AS_151,Macao,Macao,,CN,R�publique populaire de Chine,Macao,853,446,MAC,MO,N,Chine, r�gion administrative sp�ciale de Macao,99232,
AS_155,Malaisie,Malaisie,la,MY,Malaisie,Malaisie (la),60,458,MYS,MY,O,Malaisie,99227,,
AS_157,Maldives,Maldives,les,MV,R�publique des Maldives,Maldives (les,960,462,MDV,MV,O,Maldives,99229,,
AS_174,Mongolie,Mongolie,la,MN,Mongolie,Mongolie (la),976,496,MNG,MN,O,Mongolie,99242,,
AS_181,N�pal,N�pal,le,NP,R�publique d�mocratique f�d�rale du N�pal,N�pal (le),977,524,NPL,NP,O,N�pal,99215,,
AS_190,Oman,Oman,,OM,Sultanat d'Oman,Oman,968,512,OMN,OM,O,Oman,99250,,
AS_191,Ouganda,Ouganda,l',UG,R�publique d'Ouganda,Ouganda (l'),256,800,UGA,UG,O,Ouganda,99339,,
AS_192,Ouzb�kistan,Ouzb�kistan,l',UZ,R�publique d'Ouzb�kistan,Ouzb�kistan (l'),998,860,UZB,UZ,O,Ouzb�kistan,99258,,
AS_193,Pakistan,Pakistan,le,PK,R�publique islamique du Pakistan,Pakistan (le),92,586,PAK,PK,O,Pakistan,99213,,
AS_195,Palestiniens (Territoires),Territoires palestiniens,les,,,Palestine, �tat de,,275,PSE,PS,N,�tat de Palestine,99261,
AS_202,Philippines,Philippines,les,PH,R�publique des Philippines,Philippines (les),63,608,PHL,PH,O,Philippines,99220,,
AS_209,Qatar,Qatar,le,QA,�tat du Qatar,Qatar (le),974,634,QAT,QA,O,Qatar,99248,,
AS_240,Singapour,Singapour,,SG,R�publique de Singapour,Singapour,65,702,SGP,SG,O,Singapour,99226,,
AS_246,Sri Lanka,Sri Lanka,le,LK,R�publique d�mocratique socialiste du Sri Lanka,Sri Lanka,94,144,LKA,LK,O,Sri Lanka,99235,,
AS_252,Syrie,Syrie,la,SY,R�publique arabe syrienne,R�publique arabe syrienne (la),963,760,SYR,SY,O,R�publique arabe syrienne,99206,,
AS_253,Tadjikistan,Tadjikistan,le,TJ,R�publique du Tadjikistan,Tadjikistan (le),992,762,TJK,TJ,O,Tadjikistan,99259,,
AS_254,Ta�wan,Ta�wan,,,,Ta�wan (Province de Chine),886,158,TWN,TW,N,,99236,,
AS_257,Tha�lande,Tha�lande,la,TH,Royaume de Tha�lande,Tha�lande (la),66,764,THA,TH,O,Tha�lande,99219,,
AS_258,Timor oriental,Timor oriental,le,TL,R�publique d�mocratique du Timor oriental,Timor-Leste (le),670,626,TLS,TL,O,Timor-Leste,99262,,
AS_266,Turkm�nistan,Turkm�nistan,le,TM,Turkm�nistan,Turkm�nistan (le),993,795,TKM,TM,O,Turkm�nistan,99260,,
AS_268,Turquie,Turquie,la,TR,R�publique de Turquie,T�rkiye (la),90,792,TUR,TR,O,T�rkiye,99208,,
AS_277,Vietnam,Vietnam,le,VN,R�publique socialiste du Vietnam,Viet Nam (le),84,704,VNM,VN,O,Viet Nam,99243,,
AS_280,Y�men,Y�men,le,YE,R�publique du Y�men,Y�men (le),967,887,YEM,YE,O,Y�men,99251,,
EU_001,A�ores,A�ores,les,PT,R�publique portugaise,,,,,,N,,99319,,
EU_005,�land (�les),�les �land,les,FI,R�publique de Finlande,�land (les �les),,248,ALA,AX,N,�les d��land,,,
EU_006,Albanie,Albanie,l',AL,R�publique d'Albanie,Albanie (l'),355,8,ALB,AL,O,Albanie,99125,,
EU_008,Allemagne,Allemagne,l',DE,R�publique f�d�rale d'Allemagne,Allemagne (l'),49,276,DEU,DE,O,Allemagne,99109,,
EU_009,Andorre,Andorre,l',AD,Principaut� d'Andorre,Andorre (l'),376,20,AND,AD,O,Andorre,99130,,
EU_018,Arm�nie,Arm�nie,l',AM,R�publique d'Arm�nie,Arm�nie (l'),374,51,ARM,AM,O,Arm�nie,99252,,
EU_024,Autriche,Autriche,l',AT,R�publique d'Autriche,Autriche (l'),43,40,AUT,AT,O,Autriche,99110,,
EU_025,Azerba�djan,Azerba�djan,l',AZ,R�publique d'Azerba�djan,Azerba�djan (l'),994,31,AZE,AZ,O,Azerba�djan,99253,,
EU_032,Belgique,Belgique,la,BE,Royaume de Belgique,Belgique (la),32,56,BEL,BE,O,Belgique,99131,,
EU_037,Bi�lorussie,Bi�lorussie,la,BY,R�publique de Bi�lorussie,B�larus (le),375,112,BLR,BY,O,B�larus,99148,,
EU_041,Bosnie-Herz�govine,Bosnie-Herz�govine,la,BA,Bosnie-Herz�govine,Bosnie-Herz�govine (la),387,70,BIH,BA,O,Bosnie-Herz�govine,99118,,
EU_047,Bulgarie,Bulgarie,la,BG,R�publique de Bulgarie,Bulgarie (la),359,100,BGR,BG,O,Bulgarie,99111,,
EU_059,Chypre,Chypre,,CY,R�publique de Chypre,Chypre,357,196,CYP,CY,O,Chypre,99254,,
EU_072,Croatie,Croatie,la,HR,R�publique de Croatie,Croatie (la),385,191,HRV,HR,O,Croatie,99119,,
EU_075,Danemark,Danemark,le,DK,Royaume du Danemark,Danemark (le),45,208,DNK,DK,O,Danemark,99101,,
EU_083,Espagne,Espagne,l',ES,Royaume d'Espagne,Espagne (l'),34,724,ESP,ES,O,Espagne,99134,,
EU_084,Estonie,Estonie,l',EE,R�publique d'Estonie,Estonie (l'),372,233,EST,EE,O,Estonie,99106,,
EU_088,F�ro� (�les),�les F�ro�,les,DK,Royaume du Danemark,F�ro� (les �les),298,234,FRO,FO,N,�les F�ro�,99101,,
EU_090,Finlande,Finlande,la,FI,R�publique de Finlande,Finlande (la),358,246,FIN,FI,O,Finlande,99105,,
EU_091,France,France,la,FR,R�publique fran�aise,France (la),33,250,FRA,FR,O,France,,,
EU_095,G�orgie,G�orgie,la,GE,G�orgie,G�orgie (la),995,268,GEO,GE,O,G�orgie,99255,,
EU_098,Gibraltar,Gibraltar,,GB,Royaume-Uni de Grande-Bretagne et d'Irlande du Nord,Gibraltar,350,292,GIB,GI,N,Gibraltar,99133,,
EU_100,Gr�ce,Gr�ce,la,GR,R�publique hell�nique,Gr�ce (la),30,300,GRC,GR,O,Gr�ce,99126,,
EU_102,Groenland,Groenland,le,DK,Royaume du Danemark,Groenland (le),299,304,GRL,GL,N,Groenland,99430,,
EU_106,Guernesey,Guernesey,,GB,Royaume-Uni de Grande-Bretagne et d'Irlande du Nord,Guernesey,,831,GGY,GG,N,Guernesey,99132,,
EU_116,Hongrie,Hongrie,la,HU,Hongrie,Hongrie (la),36,348,HUN,HU,O,Hongrie,99112,,
EU_123,Irlande,Irlande,l',IE,Irlande,Irlande (l'),353,372,IRL,IE,O,Irlande,99136,,
EU_124,Islande,Islande,l',IS,R�publique d'Islande,Islande (l'),354,352,ISL,IS,O,Islande,99102,,
EU_126,Italie,Italie,l',IT,R�publique italienne,Italie (l'),39,380,ITA,IT,O,Italie,99127,,
EU_128,Jan Mayen (�le),�le Jan Mayen,l',NO,Royaume de Norv�ge,Svalbard et l'�le Jan Mayen (le),,744,SJM,SJ,N,�les Svalbard-et-Jan Mayen,99103,,
EU_131,Jersey,Jersey,,GB,Royaume-Uni de Grande-Bretagne et d'Irlande du Nord,Jersey,,832,JEY,JE,N,Jersey,99132,,
EU_140,Kosovo,Kosovo,le,YK,R�publique du Kosovo,,383,,,YK,O,,99157,,
EU_144,Lettonie,Lettonie,la,LV,R�publique de Lettonie,Lettonie (la),371,428,LVA,LV,O,Lettonie,99107,,
EU_148,Liechtenstein,Liechtenstein,le,LI,Principaut� du Liechtenstein,Liechtenstein (le),423,438,LIE,LI,O,Liechtenstein,99113,,
EU_149,Lituanie,Lituanie,la,LT,R�publique de Lituanie,Lituanie (la),370,440,LTU,LT,O,Lituanie,99108,,
EU_150,Luxembourg,Luxembourg,le,LU,Grand-Duch� de Luxembourg,Luxembourg (le),352,442,LUX,LU,O,Luxembourg,99137,,
EU_152,Mac�doine du Nord,Mac�doine du Nord,la,MK,R�publique de Mac�doine du Nord,Mac�doine du Nord (la),389,807,MKD,MK,O,Mac�doine du Nord,99156,,
EU_154,Mad�re,Mad�re,,PT,R�publique portugaise,,,,,,N,,99319,,
EU_160,Malte,Malte,,MT,R�publique de Malte,Malte,356,470,MLT,MT,O,Malte,99144,,
EU_161,Man (�le de),�le de Man,l',GB,Royaume-Uni de Grande-Bretagne et d'Irlande du Nord,�le de Man,,833,IMN,IM,N,�le de Man,99132,,
EU_172,Moldavie,Moldavie,la,MD,R�publique de Moldavie,Moldova (la R�publique de),373,498,MDA,MD,O,R�publique de Moldova,99151,,
EU_173,Monaco,Monaco,,MC,Principaut� de Monaco,Monaco,377,492,MCO,MC,O,Monaco,99138,,
EU_175,Mont�n�gro,Mont�n�gro,le,ME,Mont�n�gro,Mont�n�gro (le),382,499,MNE,ME,O,Mont�n�gro,99120,,
EU_187,Norv�ge,Norv�ge,la,NO,Royaume de Norv�ge,Norv�ge (la),47,578,NOR,NO,O,Norv�ge,99103,,
EU_200,Pays-Bas,Pays-Bas,les,NL,Royaume des Pays-Bas,Pays-Bas (les),31,528,NLD,NL,O,Pays-Bas,99135,,
EU_205,Pologne,Pologne,la,PL,R�publique de Pologne,Pologne (la),48,616,POL,PL,O,Pologne,99122,,
EU_208,Portugal,Portugal,le,PT,R�publique portugaise,Portugal (le),351,620,PRT,PT,O,Portugal,99139,,
EU_211,Tch�quie,Tch�quie,la,CZ,R�publique tch�que,Tch�quie (la),420,203,CZE,CZ,O,Tch�quie,99116,,
EU_214,Roumanie,Roumanie,la,RO,Roumanie,Roumanie (la),40,642,ROU,RO,O,Roumanie,99114,,
EU_215,Royaume-Uni,Royaume-Uni,le,GB,Royaume-Uni de Grande-Bretagne et d'Irlande du Nord,Royaume-Uni de Grande-Bretagne et d'Irlande du Nord (le),44,826,GBR,GB,O,Royaume-Uni de Grande-Bretagne et d�Irlande du Nord,99132,,
EU_216,Russie,Russie,la,RU,F�d�ration de Russie,Russie (la F�d�ration de),7,643,RUS,RU,O,F�d�ration de Russie,99123,,
EU_225,Saint-Marin,Saint-Marin,,SM,R�publique de Saint-Marin,Saint-Marin,378,674,SMR,SM,O,Saint-Marin,99128,,
EU_236,Serbie,Serbie,la,RS,R�publique de Serbie,Serbie (la),381,688,SRB,RS,O,Serbie,99121,,
EU_241,Slovaquie,Slovaquie,la,SK,R�publique slovaque,Slovaquie (la),421,703,SVK,SK,O,Slovaquie,99117,,
EU_242,Slov�nie,Slov�nie,la,SI,R�publique de Slov�nie,Slov�nie (la),386,705,SVN,SI,O,Slov�nie,99145,,
EU_247,Su�de,Su�de,la,SE,Royaume de Su�de,Su�de (la),46,752,SWE,SE,O,Su�de,99104,,
EU_248,Suisse,Suisse,la,CH,Conf�d�ration suisse,Suisse (la),41,756,CHE,CH,O,Suisse,99140,,
EU_250,Svalbard,Svalbard,le,NO,Royaume de Norv�ge,Svalbard et l'�le Jan Mayen (le),,744,SJM,SJ,N,�les Svalbard-et-Jan Mayen,99103,,
EU_270,Ukraine,Ukraine,l',UA,Ukraine,Ukraine (l'),380,804,UKR,UA,O,Ukraine,99155,,
EU_273,Vatican,Vatican,le,VA,Vatican (Saint-Si�ge),Saint-Si�ge (le),39,336,VAT,VA,O,Saint-Si�ge,99129,,
EU_273,Vatican,Vatican,le,VA,Vatican (Saint-Si�ge),Saint-Si�ge (le),379,336,VAT,VA,O,Saint-Si�ge,99129,,
EU_304,Canaries (�les),Canaries,les,ES,Royaume d'Espagne,,,,,,N,,99313,,
EU_354,Sercq,Sercq,,GB,Royaume-Uni de Grande-Bretagne et d'Irlande du Nord,,,680,,,N,Sercq,,,
OC_012,Antarctique,Antarctique,l',,,Antarctique (l'),,10,ATA,AQ,N,Antarctique,,,
OC_022,Australes et antarctiques fran�aises (Terres),Terres australes et antarctiques fran�aises,les,FR,R�publique fran�aise,Terres australes fran�aises (les),262,260,ATF,TF,N,Terres australes fran�aises,,,
OC_023,Australie,Australie,l',AU,Commonwealth d'Australie,Australie (l'),61,36,AUS,AU,O,Australie,99501,,
OC_044,Bouvet (�le), �le Bouvet,l',NO,Royaume de Norv�ge,Bouvet (l'�le),,74,BVT,BV,N,�le Bouvet,99103,,
OC_058,Christmas (�le),�le Christmas,l',AU,Commonwealth d'Australie,Christmas (l'�le),672,162,CXR,CX,N,�le Christmas,99501,,
OC_061,Cocos (�les),�les Cocos,les,AU,Commonwealth d'Australie,Cocos (les �les)/ Keeling (les �les),672,166,CCK,CC,N,�les des Cocos (Keeling),99501,,
OC_066,Cook (�les),�les Cook,les,CK,�les Cook,Cook (les �les),682,184,COK,CK,O,�les Cook,99502,,
OC_089,Fidji,Fidji,les,FJ,R�publique des Fidji,Fidji (les),679,242,FJI,FJ,O,Fidji,99508,,
OC_104,Guam,Guam,,US,�tats-Unis d'Am�rique,Guam,1,316,GUM,GU,N,Guam,99505,,
OC_113,Heard-et-MacDonald (�les),�les Heard-et-MacDonald,les,AU,Commonwealth d'Australie,Heard-et-�les MacDonald (l'�le),672,334,HMD,HM,N,�le Heard-et-�les MacDonald,99501,,
OC_139,Kiribati,Kiribati,les,KI,R�publique des Kiribati,Kiribati,686,296,KIR,KI,O,Kiribati,99513,,
OC_162,Mariannes du Nord (�les),�les Mariannes du Nord,les,US,�tats-Unis d'Am�rique,Mariannes du Nord (les �les),1,580,MNP,MP,N,�les Mariannes du Nord,99505,,
OC_164,Marshall (�les),�les Marshall,les,MH,R�publique des �les Marshall,Marshall (les �les),692,584,MHL,MH,O,�les Marshall,99515,,
OC_170,Micron�sie,Micron�sie,la,FM,�tats f�d�r�s de Micron�sie,Micron�sie (�tats f�d�r�s de),691,583,FSM,FM,O,Micron�sie (�tats f�d�r�s de),99516,,
OC_179,Nauru,Nauru,,NR,R�publique de Nauru,Nauru,674,520,NRU,NR,O,Nauru,99507,,
OC_185,Niue,Niue,,NU,Niue,Niue,683,570,NIU,NU,O,Niou�,99502,,
OC_186,Norfolk (�le),�le Norfolk,l',AU,Commonwealth d'Australie,Norfolk (l'�le),672,574,NFK,NF,N,�le Norfolk,99501,,
OC_188,Nouvelle-Cal�donie,Nouvelle-Cal�donie,la,FR,R�publique fran�aise,Nouvelle-Cal�donie (la),687,540,NCL,NC,N,Nouvelle-Cal�donie,,,
OC_189,Nouvelle-Z�lande,Nouvelle-Z�lande,la,NZ,Nouvelle-Z�lande,Nouvelle-Z�lande (la),64,554,NZL,NZ,O,Nouvelle-Z�lande,99502,,
OC_192,G�orgie du Sud-et-les �les Sandwich du Sud,G�orgie du Sud-et-les �les Sandwich du Sud,la,GB,Royaume-Uni de Grande-Bretagne et d'Irlande du Nord,G�orgie du Sud-et-les �les Sandwich du Sud (la),,239,SGS,GS,N,G�orgie du Sud-et-les �les Sandwich du Sud,99427,,
OC_194,Palaos,Palaos,les,PW,R�publique des Palaos,Palaos (les),680,585,PLW,PW,O,Palaos,99517,,
OC_198,Papouasie-Nouvelle-Guin�e,Papouasie-Nouvelle-Guin�e,la,PG,�tat ind�pendant de Papouasie-Nouvelle-Guin�e,Papouasie-Nouvelle-Guin�e (la),675,598,PNG,PG,O,Papouasie-Nouvelle-Guin�e,99510,,
OC_204,Pitcairn,Pitcairn,,GB,Royaume-Uni de Grande-Bretagne et d'Irlande du Nord,Pitcairn,,612,PCN,PN,N,Pitcairn,99503,,
OC_206,Polyn�sie fran�aise,Polyn�sie fran�aise,la,FR,R�publique fran�aise,Polyn�sie fran�aise (la),689,258,PYF,PF,N,Polyn�sie fran�aise,,,
OC_230,Salomon,Salomon,les,SB,�les Salomon,Salomon (les �les),677,90,SLB,SB,O,�les Salomon,99512,,
OC_232,Samoa,Samoa,les,WS,�tat ind�pendant des Samoa,Samoa (le),685,882,WSM,WS,O,Samoa,99506,,
OC_233,Samoa am�ricaines,Samoa am�ricaines,les,US,�tats-Unis d'Am�rique,Samoa am�ricaines (les),1,16,ASM,AS,N,Samoa am�ricaines,99505,,
OC_260,Tokelau,Tokelau,les,NZ,Nouvelle-Z�lande,Tokelau (les),690,772,TKL,TK,N,Tok�laou,99502,,
OC_261,Tonga,Tonga,les,TO,Royaume des Tonga,Tonga (les),676,776,TON,TO,O,Tonga,99509,,
OC_269,Tuvalu,Tuvalu,les,TV,Tuvalu,Tuvalu (les),688,798,TUV,TV,O,Tuvalu,99511,,
OC_272,Vanuatu,Vanuatu,le,VU,R�publique du Vanuatu,Vanuatu (le),678,548,VUT,VU,O,Vanuatu,99514,,
OC_279,Wallis-et-Futuna ,Wallis-et-Futuna ,,FR,R�publique fran�aise,Wallis-et-Futuna ,681,876,WLF,WF,N,�les Wallis-et-Futuna,,,
OC_424,�tats-Unis (�les mineures �loign�es des),�les mineures �loign�es des �tats-Unis,les,US,�tats-Unis d'Am�rique,�les mineures �loign�es des �tats-Unis (les),,581,UMI,UM,N,�les mineures �loign�es des �tats-Unis,,,
OC_426,Territoires des �tats-Unis en Oc�anie,Territoires des �tats-Unis en Oc�anie,les,US,�tats-Unis d'Am�rique,,,,,,N,,99505,,
